OBJECT_NAME,OBJECT_ID,EPOCH,MEAN_MOTION,ECCENTRICITY,INCLINATION,RA_OF_ASC_NODE,ARG_OF_PERICENTER,MEAN_ANOMALY,EPHEMERIS_TYPE,CLASSIFICATION_TYPE,NORAD_CAT_ID,ELEMENT_SET_NO,REV_AT_EPOCH,BSTAR,MEAN_MOTION_DOT,MEAN_MOTION_DDOT
APRIZESAT 2,2004-025A,2026-07-09T06:31:48.499968,14.38045813,.01055269,98.1034,355.0043,182.7174,177.3454,0,U,28366,999,15481,.62531368E-4,.16E-5,0
SAUDICOMSAT 1,2004-025D,2026-07-11T00:12:13.141152,14.55491706,.0031167,98.5775,202.7832,312.1480,47.7069,0,U,28369,999,16759,.51246E-4,.174E-5,0
SAUDICOMSAT 2,2004-025E,2026-07-11T00:01:56.328960,14.49993033,.0055335,98.6642,204.9209,186.3969,173.6525,0,U,28370,999,16355,.37854E-4,.1E-5,0
APRIZESAT 1,2004-025G,2026-07-10T20:46:36.265728,14.51790419,.0045815,98.6308,203.2358,83.4888,277.1519,0,U,28372,999,16534,.45711E-4,.137E-5,0
NANOSAT-1,2004-049B,2026-07-11T04:00:38.096640,14.80206182,.0003475,98.2304,329.4187,197.7470,162.3620,0,U,28493,999,15899,.82664E-4,.573E-5,0
SAUDICOMSAT 7,2007-012C,2026-07-09T11:57:20.566080,14.66132899,.0056758,98.3793,165.0881,125.7614,234.8886,0,U,31119,999,2570,.72306275E-4,.353E-5,0
SAUDICOMSAT 6,2007-012E,2026-07-10T03:29:28.317696,14.62582004,.00703886,98.4113,159.0913,255.1142,104.2256,0,U,31121,999,2354,.58592345E-4,.254E-5,0
SAUDICOMSAT 5,2007-012H,2026-07-10T09:28:02.412768,14.68188346,.00484899,98.3505,166.7451,53.6485,306.9180,0,U,31124,999,2700,.80788552E-4,.419E-5,0
SAUDICOMSAT 3,2007-012J,2026-07-10T04:17:14.170272,14.70745047,.00386135,98.3159,167.0716,341.3426,18.6362,0,U,31125,999,2820,.93600018E-4,.523E-5,0
SAUDICOMSAT 4,2007-012L,2026-07-09T18:27:55.241568,14.64532489,.0063168,98.3999,163.8022,186.6883,173.3482,0,U,31127,999,2459,.588233E-4,.267E-5,0
APRIZESAT 4,2009-041D,2026-07-10T14:07:01.178976,14.83909911,.0042009,98.1405,267.3745,244.8711,114.8142,0,U,35684,999,91483,.54416E-4,.399E-5,0
APRIZESAT 3,2009-041F,2026-07-10T05:41:28.726656,14.96300654,.00611381,98.2087,345.5692,352.2425,7.7843,0,U,35686,999,91982,.98316759E-4,.1084E-4,0
S-NET D,2018-014G,2026-07-10T14:49:25.296096,15.16892455,.000644,97.5340,96.2628,304.7096,55.3530,0,U,43186,999,46231,.18357E-3,.3549E-4,0
S-NET B,2018-014H,2026-07-11T03:46:31.188288,15.16864719,.0007015,97.5347,96.7865,296.4851,63.5663,0,U,43187,999,46239,.16086E-3,.3099E-4,0
S-NET A,2018-014J,2026-07-10T14:47:37.130208,15.16900764,.0006933,97.5357,96.4623,299.5267,60.5274,0,U,43188,999,46231,.1828E-3,.3535E-4,0
S-NET C,2018-014K,2026-07-11T03:52:17.006016,15.16855977,.0008173,97.5373,97.0821,287.3834,72.6505,0,U,43189,999,46094,.15591E-3,.3002E-4,0
SALSAT,2020-068K,2026-07-10T10:17:36.763872,15.30129687,.00086995,97.8857,195.9138,210.5134,149.5600,0,U,46495,999,31891,.18731159E-3,.5381E-4,0
OOV-CUBE (TUBSAT-30),2024-128F,2026-07-09T14:40:40.950912,15.02859618,.00418074,61.9941,147.3745,138.6970,221.7297,0,U,60240,999,10948,.11248636E-3,.1327E-4,0
LPNTSAT-001 (IOD-1),2026-065A,2026-07-11T03:03:28.865952,15.18656442,.0014663,97.3992,72.1288,282.2437,77.7156,0,U,68408,999,1589,.72936E-4,.1447E-4,0
2026-158A,2026-158A,2026-07-11T04:48:36.135936,14.25146648,.0004947,49.9854,297.2778,288.0407,71.9967,0,U,69972,999,13,.23708E-4,-.104E-5,0
2026-158B,2026-158B,2026-07-11T04:48:51.706944,14.24885391,.0005703,49.9857,297.2778,298.9027,61.1314,0,U,69973,999,13,.22777E-4,-.106E-5,0
